[{"OBJECT_NAME":"STARLINK-32556","OBJECT_ID":"2024-202P","EPOCH":"2026-02-18T04:09:03.743136","MEAN_MOTION":15.27578055,"ECCENTRICITY":0.00019734,"INCLINATION":43.0037,"RA_OF_ASC_NODE":348.1362,"ARG_OF_PERICENTER":254.9404,"MEAN_ANOMALY":105.1229,"EPHEMERIS_TYPE":0,"CLASSIFICATION_TYPE":"U","NORAD_CAT_ID":61858,"ELEMENT_SET_NO":999,"REV_AT_EPOCH":7235,"BSTAR":2.3332601e-5,"MEAN_MOTION_DOT":3.8e-6,"MEAN_MOTION_DDOT":0},{"OBJECT_NAME":"STARLINK-32466","OBJECT_ID":"2024-202Q","EPOCH":"2026-02-18T04:18:19.562112","MEAN_MOTION":15.2755863,"ECCENTRICITY":0.00011439,"INCLINATION":43.0021,"RA_OF_ASC_NODE":348.1864,"ARG_OF_PERICENTER":242.2128,"MEAN_ANOMALY":117.8608,"EPHEMERIS_TYPE":0,"CLASSIFICATION_TYPE":"U","NORAD_CAT_ID":61859,"ELEMENT_SET_NO":999,"REV_AT_EPOCH":7235,"BSTAR":0.00012384584,"MEAN_MOTION_DOT":3.145e-5,"MEAN_MOTION_DDOT":0},{"OBJECT_NAME":"STARLINK-32316","OBJECT_ID":"2024-202R","EPOCH":"2026-02-17T04:22:36.660864","MEAN_MOTION":15.27577849,"ECCENTRICITY":0.00015989,"INCLINATION":43.0028,"RA_OF_ASC_NODE":350.1388,"ARG_OF_PERICENTER":263.5183,"MEAN_ANOMALY":96.5486,"EPHEMERIS_TYPE":0,"CLASSIFICATION_TYPE":"U","NORAD_CAT_ID":61860,"ELEMENT_SET_NO":999,"REV_AT_EPOCH":7223,"BSTAR":-1.6173449e-5,"MEAN_MOTION_DOT":-7.07e-6,"MEAN_MOTION_DDOT":0},{"OBJECT_NAME":"STARLINK-32415","OBJECT_ID":"2024-202S","EPOCH":"2026-02-18T06:03:35.017632","MEAN_MOTION":15.27584997,"ECCENTRICITY":6.378e-5,"INCLINATION":43.0014,"RA_OF_ASC_NODE":347.8752,"ARG_OF_PERICENTER":303.8538,"MEAN_ANOMALY":56.2253,"EPHEMERIS_TYPE":0,"CLASSIFICATION_TYPE":"U","NORAD_CAT_ID":61861,"ELEMENT_SET_NO":999,"REV_AT_EPOCH":7235,"BSTAR":-0.00012532757,"MEAN_MOTION_DOT":-3.709e-5,"MEAN_MOTION_DDOT":0},{"OBJECT_NAME":"STARLINK-32393","OBJECT_ID":"2024-202T","EPOCH":"2026-02-18T05:58:02.740512","MEAN_MOTION":15.27515394,"ECCENTRICITY":7.119e-5,"INCLINATION":42.9996,"RA_OF_ASC_NODE":347.8473,"ARG_OF_PERICENTER":304.9191,"MEAN_ANOMALY":55.1594,"EPHEMERIS_TYPE":0,"CLASSIFICATION_TYPE":"U","NORAD_CAT_ID":61862,"ELEMENT_SET_NO":999,"REV_AT_EPOCH":7236,"BSTAR":0.00040387347,"MEAN_MOTION_DOT":0.00010846,"MEAN_MOTION_DDOT":0},{"OBJECT_NAME":"STARLINK-32324","OBJECT_ID":"2024-202U","EPOCH":"2026-02-18T04:40:31.230624","MEAN_MOTION":15.27582935,"ECCENTRICITY":4.926e-5,"INCLINATION":43.0012,"RA_OF_ASC_NODE":348.3027,"ARG_OF_PERICENTER":278.5276,"MEAN_ANOMALY":81.5519,"EPHEMERIS_TYPE":0,"CLASSIFICATION_TYPE":"U","NORAD_CAT_ID":61863,"ELEMENT_SET_NO":999,"REV_AT_EPOCH":7234,"BSTAR":-6.1810189e-5,"MEAN_MOTION_DOT":-1.962e-5,"MEAN_MOTION_DDOT":0},{"OBJECT_NAME":"STARLINK-32318","OBJECT_ID":"2024-202V","EPOCH":"2026-02-18T04:49:45.948864","MEAN_MOTION":15.27609104,"ECCENTRICITY":0.00014148,"INCLINATION":43.0055,"RA_OF_ASC_NODE":348.3473,"ARG_OF_PERICENTER":236.4308,"MEAN_ANOMALY":123.6409,"EPHEMERIS_TYPE":0,"CLASSIFICATION_TYPE":"U","NORAD_CAT_ID":61864,"ELEMENT_SET_NO":999,"REV_AT_EPOCH":7235,"BSTAR":-0.00036085127,"MEAN_MOTION_DOT":-0.00010187,"MEAN_MOTION_DDOT":0},{"OBJECT_NAME":"STARLINK-32401","OBJECT_ID":"2024-202W","EPOCH":"2026-02-18T04:55:22.825920","MEAN_MOTION":15.27477234,"ECCENTRICITY":8.78e-5,"INCLINATION":42.9962,"RA_OF_ASC_NODE":348.3807,"ARG_OF_PERICENTER":42.986,"MEAN_ANOMALY":317.106,"EPHEMERIS_TYPE":0,"CLASSIFICATION_TYPE":"U","NORAD_CAT_ID":61865,"ELEMENT_SET_NO":999,"REV_AT_EPOCH":7235,"BSTAR":0.0007738295,"MEAN_MOTION_DOT":0.00021026,"MEAN_MOTION_DDOT":0},{"OBJECT_NAME":"STARLINK-32588","OBJECT_ID":"2024-202X","EPOCH":"2026-02-18T04:46:04.185120","MEAN_MOTION":15.27604216,"ECCENTRICITY":4.628e-5,"INCLINATION":43.0011,"RA_OF_ASC_NODE":348.3336,"ARG_OF_PERICENTER":258.9758,"MEAN_ANOMALY":101.1042,"EPHEMERIS_TYPE":0,"CLASSIFICATION_TYPE":"U","NORAD_CAT_ID":61866,"ELEMENT_SET_NO":999,"REV_AT_EPOCH":7235,"BSTAR":-0.00027134131,"MEAN_MOTION_DOT":-7.726e-5,"MEAN_MOTION_DDOT":0},{"OBJECT_NAME":"STARLINK-32569","OBJECT_ID":"2024-202Y","EPOCH":"2026-02-18T05:00:52.626816","MEAN_MOTION":15.27580803,"ECCENTRICITY":0.00013292,"INCLINATION":43.0036,"RA_OF_ASC_NODE":348.4047,"ARG_OF_PERICENTER":277.9308,"MEAN_ANOMALY":82.1393,"EPHEMERIS_TYPE":0,"CLASSIFICATION_TYPE":"U","NORAD_CAT_ID":61867,"ELEMENT_SET_NO":999,"REV_AT_EPOCH":7235,"BSTAR":-0.00019135061,"MEAN_MOTION_DOT":-5.524e-5,"MEAN_MOTION_DDOT":0},{"OBJECT_NAME":"STARLINK-11402 [DTC]","OBJECT_ID":"2024-204A","EPOCH":"2026-02-18T13:09:48.620160","MEAN_MOTION":15.69698155,"ECCENTRICITY":0.0001866,"INCLINATION":53.159,"RA_OF_ASC_NODE":90.9868,"ARG_OF_PERICENTER":145.6784,"MEAN_ANOMALY":214.4355,"EPHEMERIS_TYPE":0,"CLASSIFICATION_TYPE":"U","NORAD_CAT_ID":61874,"ELEMENT_SET_NO":999,"REV_AT_EPOCH":7449,"BSTAR":3.2841e-5,"MEAN_MOTION_DOT":3.389e-5,"MEAN_MOTION_DDOT":0},{"OBJECT_NAME":"STARLINK-11316 [DTC]","OBJECT_ID":"2024-204B","EPOCH":"2026-02-18T11:45:02.288448","MEAN_MOTION":15.69701876,"ECCENTRICITY":0.0001218,"INCLINATION":53.1586,"RA_OF_ASC_NODE":90.5675,"ARG_OF_PERICENTER":104.8076,"MEAN_ANOMALY":255.3077,"EPHEMERIS_TYPE":0,"CLASSIFICATION_TYPE":"U","NORAD_CAT_ID":61875,"ELEMENT_SET_NO":999,"REV_AT_EPOCH":7390,"BSTAR":2.1531e-5,"MEAN_MOTION_DOT":2.019e-5,"MEAN_MOTION_DDOT":0},{"OBJECT_NAME":"STARLINK-11321 [DTC]","OBJECT_ID":"2024-204D","EPOCH":"2026-02-18T09:52:18.884352","MEAN_MOTION":15.697043,"ECCENTRICITY":0.000163,"INCLINATION":53.157,"RA_OF_ASC_NODE":91.5291,"ARG_OF_PERICENTER":80.8821,"MEAN_ANOMALY":279.2381,"EPHEMERIS_TYPE":0,"CLASSIFICATION_TYPE":"U","NORAD_CAT_ID":61877,"ELEMENT_SET_NO":999,"REV_AT_EPOCH":7387,"BSTAR":3.3466e-5,"MEAN_MOTION_DOT":3.466e-5,"MEAN_MOTION_DDOT":0},{"OBJECT_NAME":"STARLINK-11314 [DTC]","OBJECT_ID":"2024-204E","EPOCH":"2026-02-18T12:48:37.109376","MEAN_MOTION":15.69700475,"ECCENTRICITY":0.0001218,"INCLINATION":53.1584,"RA_OF_ASC_NODE":90.8613,"ARG_OF_PERICENTER":73.6414,"MEAN_ANOMALY":286.4738,"EPHEMERIS_TYPE":0,"CLASSIFICATION_TYPE":"U","NORAD_CAT_ID":61878,"ELEMENT_SET_NO":999,"REV_AT_EPOCH":7390,"BSTAR":1.7297e-5,"MEAN_MOTION_DOT":1.506e-5,"MEAN_MOTION_DDOT":0},{"OBJECT_NAME":"STARLINK-11324 [DTC]","OBJECT_ID":"2024-204F","EPOCH":"2026-02-18T08:06:30.439584","MEAN_MOTION":15.69690948,"ECCENTRICITY":0.0001236,"INCLINATION":53.1592,"RA_OF_ASC_NODE":91.7719,"ARG_OF_PERICENTER":93.4593,"MEAN_ANOMALY":266.6567,"EPHEMERIS_TYPE":0,"CLASSIFICATION_TYPE":"U","NORAD_CAT_ID":61879,"ELEMENT_SET_NO":999,"REV_AT_EPOCH":7387,"BSTAR":1.9128e-5,"MEAN_MOTION_DOT":1.727e-5,"MEAN_MOTION_DDOT":0},{"OBJECT_NAME":"STARLINK-11328 [DTC]","OBJECT_ID":"2024-204G","EPOCH":"2026-02-18T11:02:48.110784","MEAN_MOTION":15.69696891,"ECCENTRICITY":0.0001075,"INCLINATION":53.1587,"RA_OF_ASC_NODE":91.1135,"ARG_OF_PERICENTER":103.2148,"MEAN_ANOMALY":256.899,"EPHEMERIS_TYPE":0,"CLASSIFICATION_TYPE":"U","NORAD_CAT_ID":61880,"ELEMENT_SET_NO":999,"REV_AT_EPOCH":7389,"BSTAR":2.3417e-5,"MEAN_MOTION_DOT":2.248e-5,"MEAN_MOTION_DDOT":0}]
