STARLINK-32556          
1 61858U 24202P   26049.17295999  .00000380  00000+0  23333-4 0  9998
2 61858  43.0037 348.1362 0001973 254.9404 105.1229 15.27578055 72354
STARLINK-32466          
1 61859U 24202Q   26049.17939308  .00003145  00000+0  12385-3 0  9994
2 61859  43.0021 348.1864 0001143 242.2128 117.8608 15.27558630 72355
STARLINK-32316          
1 61860U 24202R   26048.18236876 -.00000707  00000+0 -16173-4 0  9999
2 61860  43.0028 350.1388 0001598 263.5183  96.5486 15.27577849 72236
STARLINK-32415          
1 61861U 24202S   26049.25248863 -.00003709  00000+0 -12533-3 0  9998
2 61861  43.0014 347.8752 0000637 303.8538  56.2253 15.27584997 72355
STARLINK-32393          
1 61862U 24202T   26049.24864283  .00010846  00000+0  40387-3 0  9994
2 61862  42.9996 347.8473 0000711 304.9191  55.1594 15.27515394 72365
STARLINK-32324          
1 61863U 24202U   26049.19480591 -.00001962  00000+0 -61810-4 0  9991
2 61863  43.0012 348.3027 0000492 278.5276  81.5519 15.27582935 72347
STARLINK-32318          
1 61864U 24202V   26049.20122626 -.00010187  00000+0 -36085-3 0  9990
2 61864  43.0055 348.3473 0001414 236.4308 123.6409 15.27609104 72359
STARLINK-32401          
1 61865U 24202W   26049.20512530  .00021026  00000+0  77383-3 0  9996
2 61865  42.9962 348.3807 0000878  42.9860 317.1060 15.27477234 72352
STARLINK-32588          
1 61866U 24202X   26049.19865955 -.00007726  00000+0 -27134-3 0  9999
2 61866  43.0011 348.3336 0000462 258.9758 101.1042 15.27604216 72354
STARLINK-32569          
1 61867U 24202Y   26049.20894244 -.00005524  00000+0 -19135-3 0  9991
2 61867  43.0036 348.4047 0001329 277.9308  82.1393 15.27580803 72359
STARLINK-11402 [DTC]    
1 61874U 24204A   26049.54847940  .00003389  00000+0  32841-4 0  9994
2 61874  53.1590  90.9868 0001866 145.6784 214.4355 15.69698155 74490
STARLINK-11316 [DTC]    
1 61875U 24204B   26049.48960982  .00002019  00000+0  21531-4 0  9993
2 61875  53.1586  90.5675 0001218 104.8076 255.3077 15.69701876 73905
STARLINK-11321 [DTC]    
1 61877U 24204D   26049.41132968  .00003466  00000+0  33466-4 0  9990
2 61877  53.1570  91.5291 0001630  80.8821 279.2381 15.69704300 73878
STARLINK-11314 [DTC]    
1 61878U 24204E   26049.53376284  .00001506  00000+0  17297-4 0  9992
2 61878  53.1584  90.8613 0001218  73.6414 286.4738 15.69700475 73903
STARLINK-11324 [DTC]    
1 61879U 24204F   26049.33785231  .00001727  00000+0  19128-4 0  9997
2 61879  53.1592  91.7719 0001236  93.4593 266.6567 15.69690948 73877
STARLINK-11328 [DTC]    
1 61880U 24204G   26049.46027906  .00002248  00000+0  23417-4 0  9996
2 61880  53.1587  91.1135 0001075 103.2148 256.8990 15.69696891 73892
